start=new Date('2021-12-27T00:00:00.000Z').valueOf();
sats=[{"DECAY_DATE":null,"ARG_OF_PERICENTER":"96.4607","OBJECT_ID":"2020-025R","ECCENTRICITY":"0.00023400","LAUNCH_DATE":"2020-04-22","PERIOD":"95.592","INCLINATION":"53.0529","RCS_SIZE":"LARGE","MEAN_MOTION_DDOT":"0.0000000000000","MEAN_ANOMALY":"263.6648","SITE":"AFETR","APOAPSIS":"548.832","TIME_SYSTEM":"UTC","FILE":"3251846","TLE_LINE1":"1 45546U 20025R   21360.85291447  .00000511  00000-0  53207-4 0  9993","CLASSIFICATION_TYPE":"U","MEAN_ELEMENT_THEORY":"SGP4","COUNTRY_CODE":"US","REV_AT_EPOCH":"9390","EPOCH":"2021-12-26T20:28:11.810208","EPHEMERIS_TYPE":"0","ELEMENT_SET_NO":"999","CENTER_NAME":"EARTH","BSTAR":"0.00005320700000","REF_FRAME":"TEME","PERIAPSIS":"545.591","MEAN_MOTION":"15.06400525","OBJECT_NAME":"STARLINK-1375","SEMIMAJOR_AXIS":"6925.347","TLE_LINE2":"2 45546  53.0529 152.2750 0002340  96.4607 263.6648 15.06400525 93907","OBJECT_TYPE":"PAYLOAD","MEAN_MOTION_DOT":"0.00000511","NORAD_CAT_ID":"45546","RA_OF_ASC_NODE":"152.2750","GP_ID":"192523377"},{"PERIAPSIS":"545.539","MEAN_MOTION":"15.06395594","OBJECT_NAME":"STARLINK-1377","REF_FRAME":"TEME","BSTAR":"0.00009345000000","CENTER_NAME":"EARTH","RA_OF_ASC_NODE":"152.2888","GP_ID":"192522127","NORAD_CAT_ID":"45547","TLE_LINE2":"2 45547  53.0529 152.2888 0002437  91.7059 268.4209 15.06395594 93912","MEAN_MOTION_DOT":"0.00001110","OBJECT_TYPE":"PAYLOAD","SEMIMAJOR_AXIS":"6925.362","PERIOD":"95.592","LAUNCH_DATE":"2020-04-22","ECCENTRICITY":"0.00024370","OBJECT_ID":"2020-025S","ARG_OF_PERICENTER":"91.7059","DECAY_DATE":null,"REV_AT_EPOCH":"9391","ELEMENT_SET_NO":"999","EPHEMERIS_TYPE":"0","EPOCH":"2021-12-26T20:22:52.810176","TLE_LINE1":"1 45547U 20025S   21360.84922234  .00001110  00000-0  93450-4 0  9998","FILE":"3251846","MEAN_ELEMENT_THEORY":"SGP4","CLASSIFICATION_TYPE":"U","TIME_SYSTEM":"UTC","COUNTRY_CODE":"US","MEAN_ANOMALY":"268.4209","APOAPSIS":"548.915","SITE":"AFETR","MEAN_MOTION_DDOT":"0.0000000000000","INCLINATION":"53.0529","RCS_SIZE":"LARGE"},{"GP_ID":"192522878","RA_OF_ASC_NODE":"152.7823","NORAD_CAT_ID":"45548","OBJECT_TYPE":"PAYLOAD","MEAN_MOTION_DOT":"-0.00000345","TLE_LINE2":"2 45548  53.0544 152.7823 0001932  96.1517 263.9693 15.06390870 93886","SEMIMAJOR_AXIS":"6925.377","OBJECT_NAME":"STARLINK-1378","MEAN_MOTION":"15.06390870","PERIAPSIS":"545.904","REF_FRAME":"TEME","BSTAR":"-0.00000428160000","CENTER_NAME":"EARTH","EPHEMERIS_TYPE":"0","EPOCH":"2021-12-26T17:48:57.972960","ELEMENT_SET_NO":"999","REV_AT_EPOCH":"9388","COUNTRY_CODE":"US","TIME_SYSTEM":"UTC","TLE_LINE1":"1 45548U 20025T   21360.74233765 -.00000345  00000-0 -42816-5 0  9994","FILE":"3251846","MEAN_ELEMENT_THEORY":"SGP4","CLASSIFICATION_TYPE":"U","SITE":"AFETR","APOAPSIS":"548.580","MEAN_ANOMALY":"263.9693","RCS_SIZE":"LARGE","INCLINATION":"53.0544","MEAN_MOTION_DDOT":"0.0000000000000","PERIOD":"95.593","LAUNCH_DATE":"2020-04-22","OBJECT_ID":"2020-025T","ECCENTRICITY":"0.00019320","DECAY_DATE":null,"ARG_OF_PERICENTER":"96.1517"},{"BSTAR":"0.00238220000000","CENTER_NAME":"EARTH","REF_FRAME":"TEME","MEAN_MOTION":"15.91034675","OBJECT_NAME":"STARLINK-1379","PERIAPSIS":"298.217","SEMIMAJOR_AXIS":"6677.523","OBJECT_TYPE":"PAYLOAD","MEAN_MOTION_DOT":"0.00765023","TLE_LINE2":"2 45549  53.0499 138.7851 0001754  36.3382 323.7763 15.91034675 94087","NORAD_CAT_ID":"45549","GP_ID":"192523129","RA_OF_ASC_NODE":"138.7851","DECAY_DATE":null,"ARG_OF_PERICENTER":"36.3382","OBJECT_ID":"2020-025U","ECCENTRICITY":"0.00017540","LAUNCH_DATE":"2020-04-22","PERIOD":"90.507","RCS_SIZE":"LARGE","INCLINATION":"53.0499","MEAN_MOTION_DDOT":"0.0002479400000","SITE":"AFETR","APOAPSIS":"300.560","MEAN_ANOMALY":"323.7763","COUNTRY_CODE":"US","TIME_SYSTEM":"UTC","MEAN_ELEMENT_THEORY":"SGP4","TLE_LINE1":"1 45549U 20025U   21360.78452729  .00765023  24794-3  23822-2 0  9993","FILE":"3251846","CLASSIFICATION_TYPE":"U","EPOCH":"2021-12-26T18:49:43.157856","EPHEMERIS_TYPE":"0","ELEMENT_SET_NO":"999","REV_AT_EPOCH":"9408"},{"REV_AT_EPOCH":"9389","EPOCH":"2021-12-26T19:49:41.037888","EPHEMERIS_TYPE":"0","ELEMENT_SET_NO":"999","TIME_SYSTEM":"UTC","FILE":"3251846","TLE_LINE1":"1 45550U 20025V   21360.82616942  .00000383  00000-0  44613-4 0  9994","CLASSIFICATION_TYPE":"U","MEAN_ELEMENT_THEORY":"SGP4","COUNTRY_CODE":"US","MEAN_ANOMALY":"262.0278","SITE":"AFETR","APOAPSIS":"548.853","RCS_SIZE":"LARGE","INCLINATION":"53.0539","MEAN_MOTION_DDOT":"0.0000000000000","PERIOD":"95.592","LAUNCH_DATE":"2020-04-22","ECCENTRICITY":"0.00023620","OBJECT_ID":"2020-025V","DECAY_DATE":null,"ARG_OF_PERICENTER":"98.0979","RA_OF_ASC_NODE":"152.4076","GP_ID":"192523878","NORAD_CAT_ID":"45550","TLE_LINE2":"2 45550  53.0539 152.4076 0002362  98.0979 262.0278 15.06398845 93891","OBJECT_TYPE":"PAYLOAD","MEAN_MOTION_DOT":"0.00000383","SEMIMAJOR_AXIS":"6925.352","PERIAPSIS":"545.581","MEAN_MOTION":"15.06398845","OBJECT_NAME":"STARLINK-1390","REF_FRAME":"TEME","BSTAR":"0.00004461300000","CENTER_NAME":"EARTH"},{"INCLINATION":"53.0532","RCS_SIZE":"LARGE","MEAN_MOTION_DDOT":"0.0000000000000","SITE":"AFETR","APOAPSIS":"548.489","MEAN_ANOMALY":"261.7242","COUNTRY_CODE":"US","TIME_SYSTEM":"UTC","FILE":"3251846","TLE_LINE1":"1 45551U 20025W   21360.89529573  .00001363  00000-0  11037-3 0  9997","CLASSIFICATION_TYPE":"U","MEAN_ELEMENT_THEORY":"SGP4","EPHEMERIS_TYPE":"0","EPOCH":"2021-12-26T21:29:13.551072","ELEMENT_SET_NO":"999","REV_AT_EPOCH":"9419","DECAY_DATE":null,"ARG_OF_PERICENTER":"98.3957","ECCENTRICITY":"0.00018490","OBJECT_ID":"2020-025W","LAUNCH_DATE":"2020-04-22","PERIOD":"95.592","SEMIMAJOR_AXIS":"6925.343","OBJECT_TYPE":"PAYLOAD","MEAN_MOTION_DOT":"0.00001363","TLE_LINE2":"2 45551  53.0532 132.0951 0001849  98.3957 261.7242 15.06401797 94191","NORAD_CAT_ID":"45551","GP_ID":"192522628","RA_OF_ASC_NODE":"132.0951","CENTER_NAME":"EARTH","BSTAR":"0.00011037000000","REF_FRAME":"TEME","OBJECT_NAME":"STARLINK-1294","MEAN_MOTION":"15.06401797","PERIAPSIS":"545.928"},{"TLE_LINE2":"2 45552  53.0561 114.7891 0001004  58.3527 301.7576 15.42083154 94408","OBJECT_TYPE":"PAYLOAD","MEAN_MOTION_DOT":"0.00044471","SEMIMAJOR_AXIS":"6818.099","RA_OF_ASC_NODE":"114.7891","GP_ID":"192493720","NORAD_CAT_ID":"45552","REF_FRAME":"TEME","CENTER_NAME":"EARTH","BSTAR":"0.00102800000000","PERIAPSIS":"439.280","MEAN_MOTION":"15.42083154","OBJECT_NAME":"STARLINK-1322","MEAN_ANOMALY":"301.7576","SITE":"AFETR","APOAPSIS":"440.649","INCLINATION":"53.0561","RCS_SIZE":"LARGE","MEAN_MOTION_DDOT":"0.0000000000000","REV_AT_EPOCH":"9440","EPOCH":"2021-12-26T14:04:15.030912","EPHEMERIS_TYPE":"0","ELEMENT_SET_NO":"999","TIME_SYSTEM":"UTC","FILE":"3251546","TLE_LINE1":"1 45552U 20025X   21360.58628508  .00044471  00000-0  10280-2 0  9997","CLASSIFICATION_TYPE":"U","MEAN_ELEMENT_THEORY":"SGP4","COUNTRY_CODE":"US","ECCENTRICITY":"0.00010040","OBJECT_ID":"2020-025X","DECAY_DATE":null,"ARG_OF_PERICENTER":"58.3527","PERIOD":"93.380","LAUNCH_DATE":"2020-04-22"},{"MEAN_ANOMALY":"264.3502","APOAPSIS":"548.150","SITE":"AFETR","MEAN_MOTION_DDOT":"0.0000000000000","RCS_SIZE":"LARGE","INCLINATION":"53.0548","REV_AT_EPOCH":"9289","ELEMENT_SET_NO":"999","EPOCH":"2021-12-26T20:09:36.971136","EPHEMERIS_TYPE":"0","MEAN_ELEMENT_THEORY":"SGP4","TLE_LINE1":"1 45553U 20025Y   21360.84001124  .00000979  00000-0  84577-4 0  9993","FILE":"3251846","CLASSIFICATION_TYPE":"U","TIME_SYSTEM":"UTC","COUNTRY_CODE":"US","OBJECT_ID":"2020-025Y","ECCENTRICITY":"0.00013690","ARG_OF_PERICENTER":"95.7643","DECAY_DATE":null,"PERIOD":"95.592","LAUNCH_DATE":"2020-04-22","TLE_LINE2":"2 45553  53.0548 132.3477 0001369  95.7643 264.3502 15.06403918 92896","MEAN_MOTION_DOT":"0.00000979","OBJECT_TYPE":"PAYLOAD","SEMIMAJOR_AXIS":"6925.337","RA_OF_ASC_NODE":"132.3477","GP_ID":"192523630","NORAD_CAT_ID":"45553","REF_FRAME":"TEME","CENTER_NAME":"EARTH","BSTAR":"0.00008457700000","PERIAPSIS":"546.253","MEAN_MOTION":"15.06403918","OBJECT_NAME":"STARLINK-1323"},{"OBJECT_NAME":"STARLINK-1325","MEAN_MOTION":"15.06407821","PERIAPSIS":"546.216","BSTAR":"0.00007724500000","CENTER_NAME":"EARTH","REF_FRAME":"TEME","NORAD_CAT_ID":"45554","GP_ID":"192523378","RA_OF_ASC_NODE":"132.9700","SEMIMAJOR_AXIS":"6925.325","MEAN_MOTION_DOT":"0.00000870","OBJECT_TYPE":"PAYLOAD","TLE_LINE2":"2 45554  53.0533 132.9700 0001406 101.2951 258.8196 15.06407821 94169","LAUNCH_DATE":"2020-04-22","PERIOD":"95.592","ARG_OF_PERICENTER":"101.2951","DECAY_DATE":null,"OBJECT_ID":"2020-025Z","ECCENTRICITY":"0.00014060","COUNTRY_CODE":"US","TLE_LINE1":"1 45554U 20025Z   21360.69993722  .00000870  00000-0  77245-4 0  9995","FILE":"3251846","CLASSIFICATION_TYPE":"U","MEAN_ELEMENT_THEORY":"SGP4","TIME_SYSTEM":"UTC","ELEMENT_SET_NO":"999","EPHEMERIS_TYPE":"0","EPOCH":"2021-12-26T16:47:54.575808","REV_AT_EPOCH":"9416","MEAN_MOTION_DDOT":"0.0000000000000","RCS_SIZE":"LARGE","INCLINATION":"53.0533","APOAPSIS":"548.163","SITE":"AFETR","MEAN_ANOMALY":"258.8196"},{"OBJECT_NAME":"STARLINK-1327","MEAN_MOTION":"15.06392217","PERIAPSIS":"545.843","BSTAR":"0.00000510790000","CENTER_NAME":"EARTH","REF_FRAME":"TEME","NORAD_CAT_ID":"45555","GP_ID":"192522128","RA_OF_ASC_NODE":"132.2427","SEMIMAJOR_AXIS":"6925.372","MEAN_MOTION_DOT":"-0.00000206","OBJECT_TYPE":"PAYLOAD","TLE_LINE2":"2 45555  53.0522 132.2427 0002014  96.7276 263.3943 15.06392217 94186","LAUNCH_DATE":"2020-04-22","PERIOD":"95.593","ARG_OF_PERICENTER":"96.7276","DECAY_DATE":null,"OBJECT_ID":"2020-025AA","ECCENTRICITY":"0.00020140","COUNTRY_CODE":"US","TLE_LINE1":"1 45555U 20025AA  21360.86212497 -.00000206  00000-0  51079-5 0  9990","FILE":"3251846","MEAN_ELEMENT_THEORY":"SGP4","CLASSIFICATION_TYPE":"U","TIME_SYSTEM":"UTC","ELEMENT_SET_NO":"999","EPHEMERIS_TYPE":"0","EPOCH":"2021-12-26T20:41:27.597408","REV_AT_EPOCH":"9418","MEAN_MOTION_DDOT":"0.0000000000000","RCS_SIZE":"LARGE","INCLINATION":"53.0522","APOAPSIS":"548.632","SITE":"AFETR","MEAN_ANOMALY":"263.3943"}];
